[{"OBJECT_NAME":"CBERS 4","OBJECT_ID":"2014-079A","EPOCH":"2026-03-09T23:48:34.091136","MEAN_MOTION":14.35413289,"ECCENTRICITY":6.249e-5,"INCLINATION":98.3477,"RA_OF_ASC_NODE":128.9942,"ARG_OF_PERICENTER":63.727,"MEAN_ANOMALY":296.398,"EPHEMERIS_TYPE":0,"CLASSIFICATION_TYPE":"U","NORAD_CAT_ID":40336,"ELEMENT_SET_NO":999,"REV_AT_EPOCH":58972,"BSTAR":4.6050106e-5,"MEAN_MOTION_DOT":9.0e-7,"MEAN_MOTION_DDOT":0},{"OBJECT_NAME":"SL-8 R\/B","OBJECT_ID":"1984-019B","EPOCH":"2026-03-09T22:06:47.987136","MEAN_MOTION":14.37174246,"ECCENTRICITY":0.00278505,"INCLINATION":74.0438,"RA_OF_ASC_NODE":30.8816,"ARG_OF_PERICENTER":190.2275,"MEAN_ANOMALY":169.8315,"EPHEMERIS_TYPE":0,"CLASSIFICATION_TYPE":"U","NORAD_CAT_ID":14760,"ELEMENT_SET_NO":999,"REV_AT_EPOCH":20100,"BSTAR":9.566459e-5,"MEAN_MOTION_DOT":2.6e-6,"MEAN_MOTION_DDOT":0}]
